(105, 'SL-16 R/B               ', '1 24298U 96051B   23333.88289881 -.00000055  00000+0 -35380-5 0  9997\r\n2 24298  70.8195 131.6527 0018172 279.2024  80.7041 14.12513835404592', '24298', '0000-00-00 00:00:00.000000'),
(106, 'ORBVIEW 2 (SEASTAR)     ', '1 24883U 97037A   23333.39084361  .00000821  00000+0  30873-3 0  9993\r\n2 24883  98.7475 105.5946 0002219  14.8660 345.2589 14.34264321389259', '24883', '0000-00-00 00:00:00.000000'),
(107, 'SL-16 R/B               ', '1 25400U 98043G   23334.45813945  .00000249  00000+0  12372-3 0  9991\r\n2 25400  98.7242 271.2320 0008781 264.3530  95.6648 14.25672152320906', '25400', '0000-00-00 00:00:00.000000'),
(108, 'SL-16 R/B               ', '1 25407U 98045B   23333.79461503 -.00000119  00000+0 -36123-4 0  9994\r\n2 25407  71.0099 128.6180 0008981 225.9752 134.0632 14.15953672309745', '25407', '0000-00-00 00:00:00.000000'),
(109, 'ISS (ZARYA)             ', '1 25544U 98067A   23334.68810453  .00026067  00000+0  46332-3 0  9991\r\n2 25544  51.6426 223.8583 0000911 355.2987  98.4937 15.49994401427613', '25544', '0000-00-00 00:00:00.000000'),
(110, 'CZ-4B R/B               ', '1 25732U 99025C   23334.14308137  .00000192  00000+0  11462-3 0  9994\r\n2 25732  98.7824  16.8052 0036888 207.7886 217.5889 14.17891097270592', '25732', '0000-00-00 00:00:00.000000'),
(111, 'OKEAN-O                 ', '1 25860U 99039A   23333.71469565  .00001793  00000+0  25627-3 0  9992\r\n2 25860  98.0671  21.1688 0001659 106.2304 253.9089 14.77920457311633', '25860', '0000-00-00 00:00:00.000000'),
(112, 'SL-16 R/B               ', '1 25861U 99039B   23334.09149078  .00001248  00000+0  17326-3 0  9991\r\n2 25861  98.1182  13.3138 0016535  66.6173 293.6776 14.79662481314074', '25861', '0000-00-00 00:00:00.000000'),
(113, 'DELTA 2 R/B             ', '1 25876U 99041E   23333.96243913  .00001442  00000+0  27990-3 0  9992\r\n2 25876  51.7642   8.1927 0521922  64.9028 300.5123 14.07156704245877', '25876', '0000-00-00 00:00:00.000000'),
(114, 'HELIOS 1B               ', '1 25977U 99064A   23333.58940825  .00001989  00000+0  24709-3 0  9994\r\n2 25977  98.2692 193.2666 0000531 155.4548 204.6690 14.83791658561867', '25977', '0000-00-00 00:00:00.000000'),
(115, 'TERRA                   ', '1 25994U 99068A   23334.47752269  .00001275  00000+0  27839-3 0  9994\r\n2 25994  98.0764  38.6042 0000573 253.8892 231.3120 14.59464704274032', '25994', '0000-00-00 00:00:00.000000'),
(116, 'SL-16 R/B               ', '1 26070U 00006B   23333.59539262  .00000423  00000+0  24014-3 0  9998\r\n2 26070  71.0039  45.0426 0016558 358.8591   1.2491 14.15585830230936', '26070', '0000-00-00 00:00:00.000000'),
(117, 'TITAN 4B R/B            ', '1 26474U 00047B   23334.04044553  .00004731  00000+0  37538-3 0  9997\r\n2 26474  67.9923 199.7536 0055528 251.1930 108.3186 15.00188053268001', '26474', '0000-00-00 00:00:00.000000'),
(118, 'ENVISAT                 ', '1 27386U 02009A   23334.47677182  .00000399  00000+0  14447-3 0  9997\r\n2 27386  98.2553 297.8470 0001308  84.2147  26.7489 14.38457318139862', '27386', '0000-00-00 00:00:00.000000'),
(119, 'IDEFIX & ARIANE 42P R/B ', '1 27422U 02021B   23334.45578655  .00000830  00000+0  33896-3 0  9994\r\n2 27422  98.5086 271.3883 0013100 110.0707 250.1887 14.29876679123420', '27422', '0000-00-00 00:00:00.000000'),
(120, 'AQUA                    ', '1 27424U 02022A   23334.47118273  .00002639  00000+0  57684-3 0  9995\r\n2 27424  98.3072 278.4999 0001776  58.6722  75.7147 14.58616926147594', '27424', '0000-00-00 00:00:00.000000'),
(121, 'CZ-4B R/B               ', '1 27432U 02024C   23333.60683352  .00000173  00000+0  11311-3 0  9993\r\n2 27432  99.0044   9.6780 0049796 217.8439 257.9385 14.14261003111751', '27432', '0000-00-00 00:00:00.000000'),
(122, 'MIDORI II (ADEOS-II)    ', '1 27597U 02056A   23334.44708591  .00000936  00000+0  39431-3 0  9996\r\n2 27597  98.6686 277.2580 0000172  92.0948 268.0253 14.28106314 91723', '27597', '0000-00-00 00:00:00.000000'),
(123, 'H-2A R/B                ', '1 27601U 02056E   23333.58719844  .00000674  00000+0  25578-3 0  9995\r\n2 27601  98.2088 315.9098 0072602 119.3201 353.7552 14.32553261 95064', '27601', '0000-00-00 00:00:00.000000'),
(124, 'CZ-4B R/B               ', '1 28059U 03049C   23333.87723356  .00000980  00000+0  24355-3 0  9993\r\n2 28059  98.5833 285.9928 0048243 247.0649 112.5451 14.53439238 65820', '28059', '0000-00-00 00:00:00.000000'),
(125, 'CZ-2C R/B               ', '1 28222U 04012C   23333.55030648  .00015754  00000+0  70149-3 0  9993\r\n2 28222  97.8078 333.5109 0038941  30.7632 329.5874 15.20856286 76573', '28222', '0000-00-00 00:00:00.000000'),
(126, 'SL-16 R/B               ', '1 28353U 04021B   23333.80588886  .00000173  00000+0  11513-3 0  9997\r\n2 28353  71.0004 175.8523 0006760 236.3363 123.7115 14.14371251  5342', '28353', '0000-00-00 00:00:00.000000'),
(127, 'CZ-4B R/B               ', '1 28415U 04035C   23333.57037719  .00008050  00000+0  45016-3 0  9996\r\n2 28415  97.4500   6.8359 0045256   0.1678 359.9560 15.12853110 53600', '28415', '0000-00-00 00:00:00.000000'),
(128, 'CZ-2C R/B               ', '1 28480U 04046B   23333.87190044  .00000497  00000+0  20120-3 0  9990\r\n2 28480  98.1369 286.8392 0142306  91.8370 269.9116 14.26168276990041', '28480', '0000-00-00 00:00:00.000000'),
(129, 'ARIANE 5 R/B            ', '1 28499U 04049H   23334.36939831  .00003172  00000+0  38145-3 0  9992\r\n2 28499  98.1579 103.1963 0089711 158.3903 202.1134 14.81830633 22690', '28499', '0000-00-00 00:00:00.000000'),
(130, 'CZ-2D R/B               ', '1 28738U 05024B   23333.54345774  .00013067  00000+0  58747-3 0  9992\r\n2 28738  97.3592 330.8782 0011300 123.2282 237.0038 15.21195605 12125', '28738', '0000-00-00 00:00:00.000000'),
(131, 'SUZAKU (ASTRO-EII)      ', '1 28773U 05025A   23334.46482198  .00023306  00000+0  67011-3 0  9997\r\n2 28773  31.3909  42.5747 0002450  45.2289 314.8563 15.34611564 16209', '28773', '0000-00-00 00:00:00.000000'),
(132, 'ALOS (DAICHI)           ', '1 28931U 06002A   23334.48316894  .00003135  00000+0  59614-3 0  9998\r\n2 28931  98.0119 287.2893 0002378  78.4818 281.6652 14.64816504952104', '28931', '0000-00-00 00:00:00.000000'),
(133, 'H-2A R/B                ', '1 28932U 06002B   23334.20590367  .00009260  00000+0  73483-3 0  9993\r\n2 28932  98.2253  49.9604 0079237 144.2309 216.4256 14.98267976969467', '28932', '0000-00-00 00:00:00.000000'),
(134, 'RESURS-DK 1             ', '1 29228U 06021A   23334.10363709  .00003836  00000+0  27023-3 0  9992\r\n2 29228  69.9350 214.3276 0006777 300.9608  59.0888 15.05869688962219', '29228', '0000-00-00 00:00:00.000000'),
(135, 'GENESIS 1               ', '1 29252U 06029A   23333.58299958  .00020635  00000+0  68922-3 0  9991\r\n2 29252  64.5180 119.0502 0004422 239.5547 120.5146 15.31064970959807', '29252', '0000-00-00 00:00:00.000000'),
(136, 'CZ-4B R/B               ', '1 29507U 06046C   23333.76467366  .00006634  00000+0  45701-3 0  9996\r\n2 29507  97.6698   6.0366 0040669 238.3182 121.4076 15.05516387934595', '29507', '0000-00-00 00:00:00.000000'),
(137, 'CZ-2C R/B               ', '1 31114U 07010B   23333.39874432  .00000416  00000+0  21227-3 0  9999\r\n2 31114  98.3029 116.5681 0059257 192.1461 167.8291 14.19665663861740', '31114', '0000-00-00 00:00:00.000000'),
(138, 'COSMO-SKYMED 1          ', '1 31598U 07023A   23334.50740871  .00001487  00000+0  19335-3 0  9998\r\n2 31598  97.8855 155.5878 0001357  79.0191 281.1174 14.82147889891613', '31598', '0000-00-00 00:00:00.000000'),
(139, 'GENESIS 2               ', '1 31789U 07028A   23333.62525327  .00017331  00000+0  58765-3 0  9999\r\n2 31789  64.4914 163.6822 0045834 239.1163 120.5455 15.29657773906677', '31789', '0000-00-00 00:00:00.000000'),
(140, 'COSMOS 2428             ', '1 31792U 07029A   23334.52116072  .00000505  00000+0  29852-3 0  9997\r\n2 31792  70.9359 145.6660 0010331 317.9647  42.0680 14.12622293846921', '31792', '0000-00-00 00:00:00.000000'),
(141, 'SL-16 R/B               ', '1 31793U 07029B   23334.46838942  .00000123  00000+0  88784-4 0  9994\r\n2 31793  70.9738 117.2345 0002224 258.9876 158.1087 14.14571928848043', '31793', '0000-00-00 00:00:00.000000'),
(142, 'KORONAS-FOTON           ', '1 33504U 09003A   23333.66613771  .00010350  00000+0  44025-3 0  9994\r\n2 33504  82.4407  45.1372 0015869 222.2353 137.7662 15.22773112818608', '33504', '0000-00-00 00:00:00.000000'),
(143, 'CZ-2C R/B               ', '1 37731U 11030B   23333.88464157  .00002258  00000+0  32093-3 0  9999\r\n2 37731  97.7375 300.5505 0057465 168.2906 245.8379 14.76719535667283', '37731', '0000-00-00 00:00:00.000000'),
(144, 'H-2A R/B                ', '1 38341U 12025E   23333.72467166  .00004643  00000+0  51110-3 0  9999\r\n2 38341  98.4350 227.7709 0053149 136.1821 224.3629 14.87077027624461', '38341', '0000-00-00 00:00:00.000000'),
(145, 'CUSAT 2 & FALCON 9 R/B  ', '1 39271U 13055G   23334.09613813  .00053231  42647-7  82016-3 0  9996\r\n2 39271  80.9428 316.5116 0384463 246.3254 109.7184 14.99805711535189', '39271', '0000-00-00 00:00:00.000000'),
(146, 'SHIJIAN-16 (SJ-16)      ', '1 39358U 13057A   23334.46607457  .00002656  00000+0  29262-3 0  9990\r\n2 39358  74.9736 311.6384 0019478 316.8656  43.1003 14.87825117547906', '39358', '0000-00-00 00:00:00.000000'),
(147, 'CZ-2C R/B               ', '1 39364U 13059B   23333.66250848  .00056941  00000+0  86096-3 0  9992\r\n2 39364  97.0790  17.5352 0025045 205.3627 154.6400 15.54152803561829', '39364', '0000-00-00 00:00:00.000000'),
(148, 'SL-4 R/B                ', '1 39679U 14021B   23334.04696397  .00010965  00000+0  44688-3 0  9994\r\n2 39679  51.6120 353.8244 0147135  12.1083 348.3366 15.15586293529695', '39679', '0000-00-00 00:00:00.000000'),
(149, 'ALOS-2                  ', '1 39766U 14029A   23334.45802338  .00004387  00000+0  59397-3 0  9992\r\n2 39766  97.9235  68.9711 0001428 101.1472 258.9900 14.79469853514145', '39766', '0000-00-00 00:00:00.000000'),
